[
 {
   "License": 0,
   "DBAName": "CHICAGO GETAWAY HOSTEL",
   "Address": "616 W ARLINGTON PL ",
   "City": "CHICAGO",
   "State": "IL",
   "Zip": 60614,
   "Latitude": 41.92682500249671,
   "Longitude": -87.64470626566694
 },
 {
   "License": 1,
   "DBAName": "HARVEST CRUSADES MINISTRIES",
   "Address": "118 N CENTRAL AVE ",
   "City": "CHICAGO",
   "State": "IL",
   "Zip": 60644,
   "Latitude": 41.882845074718844,
   "Longitude": -87.76509545204391
 },
 {
   "License": 2,
   "DBAName": "COSI",
   "Address": "230 W MONROE ST ",
   "City": "CHICAGO",
   "State": "IL",
   "Zip": 60606,
   "Latitude": 41.880757158647214,
   "Longitude": -87.6347092983425
 },
 {
   "License": 9,
   "DBAName": "XANDO COFFEE & BAR / COSI SANDWICH BAR",
   "Address": "116 S MICHIGAN AVE ",
   "City": "CHICAGO",
   "State": "IL",
   "Zip": 60603,
   "Latitude": 41.880395838259616,
   "Longitude": -87.62450172159464
 },
 {
   "License": 40,
   "DBAName": "COSI",
   "Address": "233 N MICHIGAN AVE ",
   "City": "CHICAGO",
   "State": "IL",
   "Zip": 60601,
   "Latitude": 41.886567370886944,
   "Longitude": -87.62438467059714
 },
 {
   "License": 43,
   "DBAName": "COSI",
   "Address": "28 E JACKSON BLVD ",
   "City": "CHICAGO",
   "State": "IL",
   "Zip": 60604,
   "Latitude": 41.87834161206342,
   "Longitude": -87.62667499148682
 },
 {
   "License": 62,
   "DBAName": "XANDO COFFEE & BAR / COSI SANDWICH BAR",
   "Address": "230 W WASHINGTON ST ",
   "City": "CHICAGO",
   "State": "IL",
   "Zip": 60606,
   "Latitude": 41.88331785985083,
   "Longitude": -87.63476909461744
 },
 {
   "License": 85,
   "DBAName": "XANDO COFFEE & BAR / COSI SANDWICH BAR",
   "Address": "55 E GRAND AVE ",
   "City": "CHICAGO",
   "State": "IL",
   "Zip": 60611,
   "Latitude": 41.891590741083505,
   "Longitude": -87.62586713724458
 },
 {
   "License": 99,
   "DBAName": "XANDO COFFEE & BAR / COSI SANDWICH BAR",
   "Address": "203 N LA SALLE ST ",
   "City": "CHICAGO",
   "State": "IL",
   "Zip": 60601,
   "Latitude": 41.88582204785303,
   "Longitude": -87.63230373508569
 },
 {
   "License": 104,
   "DBAName": "VITO & NICK'S LOUNGE",
   "Address": "8433-8435 S PULASKI RD ",
   "City": "CHICAGO",
   "State": "IL",
   "Zip": 60652,
   "Latitude": 41.73932941000113,
   "Longitude": -87.72143966255604
 },
 {
   "License": 115,
   "DBAName": "JOHN SCHALLER",
   "Address": "3714 S HALSTED ST ",
   "City": "CHICAGO",
   "State": "IL",
   "Zip": 60609,
   "Latitude": 41.82718501563474,
   "Longitude": -87.6461704563508
 },
 {
   "License": 126,
   "DBAName": "CAL'S 400 LIQUORS, INC.",
   "Address": "400 S WELLS ST ",
   "City": "CHICAGO",
   "State": "IL",
   "Zip": 60607,
   "Latitude": 41.876784831445576,
   "Longitude": -87.63383891021036
 },
 {
   "License": 139,
   "DBAName": "KILDARE LIQUORS",
   "Address": "4300 W LAWRENCE AVE ",
   "City": "CHICAGO",
   "State": "IL",
   "Zip": 60630,
   "Latitude": 41.968267042285326,
   "Longitude": -87.73549834843345
 },
 {
   "License": 143,
   "DBAName": "GEORGE BOZIC",
   "Address": "1964 W LAWRENCE AVE ",
   "City": "CHICAGO",
   "State": "IL",
   "Zip": 60640,
   "Latitude": 41.968872040025246,
   "Longitude": -87.67871952790091
 },
 {
   "License": 146,
   "DBAName": "JEAN SAMOCKI",
   "Address": "2032 W ARMITAGE AVE ",
   "City": "CHICAGO",
   "State": "IL",
   "Zip": 60647,
   "Latitude": 41.917841383782495,
   "Longitude": -87.67893682868015
 },
 {
   "License": 147,
   "DBAName": "Islands",
   "Address": "3854-3856 N ASHLAND AVE ",
   "City": "CHICAGO",
   "State": "IL",
   "Zip": 60613,
   "Latitude": 41.952259233971795,
   "Longitude": -87.66914434619949
 },
 {
   "License": 149,
   "DBAName": "FOX'S BEVERLY PUB",
   "Address": "9956 S WESTERN AVE ",
   "City": "CHICAGO",
   "State": "IL",
   "Zip": 60643,
   "Latitude": 41.712012133229095,
   "Longitude": -87.68193540843004
 },
 {
   "License": 153,
   "DBAName": "JEFFERY PUB",
   "Address": "7041 S JEFFERY BLVD ",
   "City": "CHICAGO",
   "State": "IL",
   "Zip": 60649,
   "Latitude": 41.7668180675386,
   "Longitude": -87.5761708282342
 },
 {
   "License": 158,
   "DBAName": "BURWOOD TAP",
   "Address": "724 W WRIGHTWOOD AVE ",
   "City": "CHICAGO",
   "State": "IL",
   "Zip": 60614,
   "Latitude": 41.92920519052382,
   "Longitude": -87.64752248718568
 },
 {
   "License": 164,
   "DBAName": "POTASH BROS. SUPERMARKET",
   "Address": "1525 N CLARK ST ",
   "City": "CHICAGO",
   "State": "IL",
   "Zip": 60610,
   "Latitude": 41.910117944887425,
   "Longitude": -87.63149089141778
 },
 {
   "License": 207,
   "DBAName": "RIVER SHANNON",
   "Address": "425 W ARMITAGE AVE ",
   "City": "CHICAGO",
   "State": "IL",
   "Zip": 60614,
   "Latitude": 41.918197786473826,
   "Longitude": -87.63974737355731
 },
 {
   "License": 215,
   "DBAName": "KAREGIANES INC",
   "Address": "7043 W GRAND AVE ",
   "City": "CHICAGO",
   "State": "IL",
   "Zip": 60707,
   "Latitude": 41.92343297105639,
   "Longitude": -87.80248081451981
 },
 {
   "License": 218,
   "DBAName": "LAURIE'S REST & COCKTAIL LOUNG",
   "Address": "5153 N BROADWAY ",
   "City": "CHICAGO",
   "State": "IL",
   "Zip": 60640,
   "Latitude": 41.97616536053114,
   "Longitude": -87.6597154797116
 },
 {
   "License": 229,
   "DBAName": "69TH ST. CERTIFIED",
   "Address": "1906 W 69TH ST ",
   "City": "CHICAGO",
   "State": "IL",
   "Zip": 60636,
   "Latitude": 41.76857751665232,
   "Longitude": -87.67151318236414
 },
 {
   "License": 239,
   "DBAName": "OLD TIMERS REST & LOUNGE",
   "Address": "75 E LAKE ST ",
   "City": "CHICAGO",
   "State": "IL",
   "Zip": 60601,
   "Latitude": 41.88562425462461,
   "Longitude": -87.6252964950646
 },
 {
   "License": 241,
   "DBAName": "HOP HAUS ROGERS PARK",
   "Address": "7541-7545 N CLARK ST ",
   "City": "CHICAGO",
   "State": "IL",
   "Zip": 60626,
   "Latitude": 42.018903507079344,
   "Longitude": -87.67595814790334
 },
 {
   "License": 244,
   "DBAName": "HAROLD HANSON",
   "Address": "2613 W FULLERTON AVE ",
   "City": "CHICAGO",
   "State": "IL",
   "Zip": 60647,
   "Latitude": 41.92474046540935,
   "Longitude": -87.69313234685238
 },
 {
   "License": 246,
   "DBAName": "C AND K LIQUOR INC",
   "Address": "12034 S MICHIGAN AVE ",
   "City": "CHICAGO",
   "State": "IL",
   "Zip": 60628,
   "Latitude": 41.6752737452078,
   "Longitude": -87.62057527912069
 },
 {
   "License": 255,
   "DBAName": "MARIE WUCZYNSKI'S RIPTIDE",
   "Address": "1745 W ARMITAGE AVE ",
   "City": "CHICAGO",
   "State": "IL",
   "Zip": 60622,
   "Latitude": 41.91775522989335,
   "Longitude": -87.67198816311462
 },
 {
   "License": 257,
   "DBAName": "GEJA'S CAFE",
   "Address": "340-344 W ARMITAGE AVE ",
   "City": "CHICAGO",
   "State": "IL",
   "Zip": 60614,
   "Latitude": 41.918445336371185,
   "Longitude": -87.63800742700411
 },
 {
   "License": 260,
   "DBAName": "PARK MANOR LOUNGE",
   "Address": "7109 S DR MARTIN LUTHER KING JR DR ",
   "City": "CHICAGO",
   "State": "IL",
   "Zip": 60619,
   "Latitude": 41.7653946151022,
   "Longitude": -87.61511045385711
 },
 {
   "License": 265,
   "DBAName": "THE CLOSET",
   "Address": "3325 N BROADWAY ",
   "City": "CHICAGO",
   "State": "IL",
   "Zip": 60657,
   "Latitude": 41.94264743041398,
   "Longitude": -87.64433253937591
 },
 {
   "License": 271,
   "DBAName": "ROMA'S REST",
   "Address": "9273 S SOUTH CHICAGO AVE ",
   "City": "CHICAGO",
   "State": "IL",
   "Zip": 60617,
   "Latitude": 41.726723093908134,
   "Longitude": -87.55094326211271
 },
 {
   "License": 276,
   "DBAName": "BUTCH MC GUIRE'S, INC.",
   "Address": "20 W DIVISION ST ",
   "City": "CHICAGO",
   "State": "IL",
   "Zip": 60610,
   "Latitude": 41.90403823021623,
   "Longitude": -87.62950232369501
 },
 {
   "License": 289,
   "DBAName": "SANDERS LOUNGE",
   "Address": "700 W 59TH ST ",
   "City": "CHICAGO",
   "State": "IL",
   "Zip": 60621,
   "Latitude": 41.787176102030394,
   "Longitude": -87.64259901750826
 },
 {
   "License": 313,
   "DBAName": "O'NEIL'S BAR & GRILL",
   "Address": "152 E ONTARIO ST ",
   "City": "CHICAGO",
   "State": "IL",
   "Zip": 60611,
   "Latitude": 41.89345958880933,
   "Longitude": -87.62337423955239
 },
 {
   "License": 316,
   "DBAName": "LINCOLN TAVERN & RESTAURANT",
   "Address": "1858 W WABANSIA AVE ",
   "City": "CHICAGO",
   "State": "IL",
   "Zip": 60622,
   "Latitude": 41.912456471408795,
   "Longitude": -87.67501225752257
 },
 {
   "License": 319,
   "DBAName": "LITTLE JOE'S CIRCLE LOUNGE INC",
   "Address": "1041 W TAYLOR ST ",
   "City": "CHICAGO",
   "State": "IL",
   "Zip": 60607,
   "Latitude": 41.86937117592203,
   "Longitude": -87.65278082182138
 },
 {
   "License": 340,
   "DBAName": "ALGIER LOUNGE",
   "Address": "5436 W MONTROSE AVE ",
   "City": "CHICAGO",
   "State": "IL",
   "Zip": 60641,
   "Latitude": 41.96063355649603,
   "Longitude": -87.7638167833572
 },
 {
   "License": 349,
   "DBAName": "KELLY'S PUB",
   "Address": "949 W WEBSTER AVE ",
   "City": "CHICAGO",
   "State": "IL",
   "Zip": 60614,
   "Latitude": 41.92163661876611,
   "Longitude": -87.65300408425684
 },
 {
   "License": 353,
   "DBAName": "SKYWAY LANES",
   "Address": "9915 S TORRENCE AVE ",
   "City": "CHICAGO",
   "State": "IL",
   "Zip": 60617,
   "Latitude": 41.71488533977168,
   "Longitude": -87.55962172308115
 },
 {
   "License": 366,
   "DBAName": "H & L LIQUORS INC.",
   "Address": "4709 N DAMEN AVE ",
   "City": "CHICAGO",
   "State": "IL",
   "Zip": 60625,
   "Latitude": 41.96720263849853,
   "Longitude": -87.67899488456267
 },
 {
   "License": 368,
   "DBAName": "GOLDIES",
   "Address": "3839 N LINCOLN AVE ",
   "City": "CHICAGO",
   "State": "IL",
   "Zip": 60613,
   "Latitude": 41.95159798252976,
   "Longitude": -87.6768105097822
 },
 {
   "License": 373,
   "DBAName": "ALBET INVESTMENTS LTD",
   "Address": "7463-7465 S VINCENNES AVE ",
   "City": "CHICAGO",
   "State": "IL",
   "Zip": 60621,
   "Latitude": 41.75823400843853,
   "Longitude": -87.6311709946953
 },
 {
   "License": 376,
   "DBAName": "ALBET INVESTMENTS",
   "Address": "7465 S VINCENNES AVE ",
   "City": "CHICAGO",
   "State": "IL",
   "Zip": 60621,
   "Latitude": 41.75818264439629,
   "Longitude": -87.63119556179363
 },
 {
   "License": 383,
   "DBAName": "MIKES LIQUORS",
   "Address": "3135 W MONTROSE AVE ",
   "City": "CHICAGO",
   "State": "IL",
   "Zip": 60618,
   "Latitude": 41.961083923126395,
   "Longitude": -87.70724120876541
 },
 {
   "License": 385,
   "DBAName": "MR BEEF ON HARLEM, LTD",
   "Address": "3917 N HARLEM AVE ",
   "City": "CHICAGO",
   "State": "IL",
   "Zip": 60634,
   "Latitude": 41.9512746694024,
   "Longitude": -87.80706638213873
 },
 {
   "License": 404,
   "DBAName": "CELTIC CROWN",
   "Address": "4301 N WESTERN AVE ",
   "City": "CHICAGO",
   "State": "IL",
   "Zip": 60618,
   "Latitude": 41.95953927581488,
   "Longitude": -87.68848380383307
 },
 {
   "License": 407,
   "DBAName": "THE MID DAY CLUB",
   "Address": "76 W MONROE ST ",
   "City": "CHICAGO",
   "State": "IL",
   "Zip": 60603,
   "Latitude": 41.88080970029171,
   "Longitude": -87.63058092066868
 },
 {
   "License": 410,
   "DBAName": "CAMBRIDGE HOUSE RESTAURANT",
   "Address": "167 E OHIO ST ",
   "City": "CHICAGO",
   "State": "IL",
   "Zip": 60611,
   "Latitude": 41.89244892251652,
   "Longitude": -87.62276316587196
 },
 {
   "License": 415,
   "DBAName": "VITANGELO'S PIZZA & RESTAURANT",
   "Address": "3644 W FULLERTON AVE ",
   "City": "CHICAGO",
   "State": "IL",
   "Zip": 60647,
   "Latitude": 41.92469107502236,
   "Longitude": -87.7188292868979
 },
 {
   "License": 429,
   "DBAName": "TONY'S ITALIAN DELI",
   "Address": "6708 N NORTHWEST HWY ",
   "City": "CHICAGO",
   "State": "IL",
   "Zip": 60631,
   "Latitude": 42.00289469259332,
   "Longitude": -87.81656422345733
 },
 {
   "License": 440,
   "DBAName": "JERUSALEM LIQUORS",
   "Address": "3133-3135 W LAWRENCE AVE ",
   "City": "CHICAGO",
   "State": "IL",
   "Zip": 60625,
   "Latitude": 41.96835470022669,
   "Longitude": -87.70739432492609
 },
 {
   "License": 473,
   "DBAName": "Kinetic Playground",
   "Address": "1113 W LAWRENCE AVE ",
   "City": "CHICAGO",
   "State": "IL",
   "Zip": 60640,
   "Latitude": 41.96893557148954,
   "Longitude": -87.6582007180482
 },
 {
   "License": 481,
   "DBAName": "PIZZA LOUNGE",
   "Address": "2801 W CHICAGO AVE ",
   "City": "CHICAGO",
   "State": "IL",
   "Zip": 60622,
   "Latitude": 41.895543708081156,
   "Longitude": -87.69676464023073
 },
 {
   "License": 488,
   "DBAName": "THE ANGUS",
   "Address": "7555 N WESTERN AVE ",
   "City": "CHICAGO",
   "State": "IL",
   "Zip": 60645,
   "Latitude": 42.01906889946711,
   "Longitude": -87.69003205693211
 },
 {
   "License": 491,
   "DBAName": "LA UNICA FOOD MART, INC.",
   "Address": "1515 W DEVON AVE ",
   "City": "CHICAGO",
   "State": "IL",
   "Zip": 60660,
   "Latitude": 41.99799345967903,
   "Longitude": -87.66842788571333
 },
 {
   "License": 525,
   "DBAName": "MARQ LOUNGE",
   "Address": "5065-5067 W MADISON ST ",
   "City": "CHICAGO",
   "State": "IL",
   "Zip": 60644,
   "Latitude": 41.880297636028864,
   "Longitude": -87.75236472341271
 },
 {
   "License": 526,
   "DBAName": "DI'S DEN",
   "Address": "5100-5104 W IRVING PARK RD ",
   "City": "CHICAGO",
   "State": "IL",
   "Zip": 60641,
   "Latitude": 41.95343828711805,
   "Longitude": -87.7547543279566
 },
 {
   "License": 556,
   "DBAName": "RENALDI'S PIZZA",
   "Address": "2827 N BROADWAY ",
   "City": "CHICAGO",
   "State": "IL",
   "Zip": 60657,
   "Latitude": 41.93353570530649,
   "Longitude": -87.64454292702328
 },
 {
   "License": 574,
   "DBAName": "ZAVEN INC",
   "Address": "260 E CHESTNUT ST ",
   "City": "CHICAGO",
   "State": "IL",
   "Zip": 60611,
   "Latitude": 41.89856447342598,
   "Longitude": -87.61947057794758
 },
 {
   "License": 600,
   "DBAName": "GIL-TIKIE LOUNGE",
   "Address": "9149 S ASHLAND AVE ",
   "City": "CHICAGO",
   "State": "IL",
   "Zip": 60620,
   "Latitude": 41.727041452634225,
   "Longitude": -87.66266831572061
 },
 {
   "License": 606,
   "DBAName": "SOUL QUEEN RESTAURANT & LOUNGE",
   "Address": "9031 S STONY ISLAND AVE ",
   "City": "CHICAGO",
   "State": "IL",
   "Zip": 60617,
   "Latitude": 41.73051756929612,
   "Longitude": -87.58491993249247
 },
 {
   "License": 613,
   "DBAName": "CHINESE HOUSE RESTAURANT",
   "Address": "5955 W BELMONT AVE ",
   "City": "CHICAGO",
   "State": "IL",
   "Zip": 60634,
   "Latitude": 41.938341303882666,
   "Longitude": -87.77599556039026
 },
 {
   "License": 632,
   "DBAName": "FRANCES COCKTAIL LOUNGE",
   "Address": "307 E 75TH ST ",
   "City": "CHICAGO",
   "State": "IL",
   "Zip": 60619,
   "Latitude": 41.75824795059918,
   "Longitude": -87.61796718262127
 },
 {
   "License": 633,
   "DBAName": "FRANCES COCKTAIL LOUNGE",
   "Address": "307 E 75TH ST ",
   "City": "CHICAGO",
   "State": "IL",
   "Zip": 60619,
   "Latitude": 41.75824795059918,
   "Longitude": -87.61796718262127
 },
 {
   "License": 644,
   "DBAName": "MAXIM'S RESTAURANT INC",
   "Address": "20 N CLARK ST ",
   "City": "CHICAGO",
   "State": "IL",
   "Zip": 60602,
   "Latitude": 41.88243401155929,
   "Longitude": -87.63103701420854
 },
 {
   "License": 653,
   "DBAName": "ZIEMEK CORP.",
   "Address": "5368 N MILWAUKEE AVE ",
   "City": "CHICAGO",
   "State": "IL",
   "Zip": 60630,
   "Latitude": 41.97836392545557,
   "Longitude": -87.77037720178194
 },
 {
   "License": 663,
   "DBAName": "EL NUEVO GUADALAJARA INC",
   "Address": "4350 S ASHLAND AVE ",
   "City": "CHICAGO",
   "State": "IL",
   "Zip": 60609,
   "Latitude": 41.81437321852337,
   "Longitude": -87.66526254784034
 },
 {
   "License": 666,
   "DBAName": "THE BAKED TOMATO",
   "Address": "4358-4360 N ELSTON AVE ",
   "City": "CHICAGO",
   "State": "IL",
   "Zip": 60641,
   "Latitude": 41.959951934694594,
   "Longitude": -87.72849754956722
 },
 {
   "License": 687,
   "DBAName": "TOWN HALL PUB",
   "Address": "3340 N HALSTED ST ",
   "City": "CHICAGO",
   "State": "IL",
   "Zip": 60657,
   "Latitude": 41.943003996643256,
   "Longitude": -87.64950942825703
 },
 {
   "License": 691,
   "DBAName": "FOUR FARTHINGS TAVERN & GRILL",
   "Address": "2058-2060 N CLEVELAND AVE ",
   "City": "CHICAGO",
   "State": "IL",
   "Zip": 60614,
   "Latitude": 41.920015990079655,
   "Longitude": -87.64144919947897
 },
 {
   "License": 692,
   "DBAName": "DICKENS STREET PUBLIC HOUSE",
   "Address": "2058-2060 N CLEVELAND AVE ",
   "City": "CHICAGO",
   "State": "IL",
   "Zip": 60614,
   "Latitude": 41.920015990079655,
   "Longitude": -87.64144919947897
 },
 {
   "License": 694,
   "DBAName": "END ZONE TAP",
   "Address": "10036 S WESTERN AVE ",
   "City": "CHICAGO",
   "State": "IL",
   "Zip": 60643,
   "Latitude": 41.71077678752739,
   "Longitude": -87.68189948436465
 },
 {
   "License": 697,
   "DBAName": "SIXTY SIX O ONE CLUB",
   "Address": "6601 S WESTERN AVE ",
   "City": "CHICAGO",
   "State": "IL",
   "Zip": 60636,
   "Latitude": 41.773695811390624,
   "Longitude": -87.68334439509034
 },
 {
   "License": 700,
   "DBAName": "ORSO'S RESTAURANT",
   "Address": "1401 N WELLS ST ",
   "City": "CHICAGO",
   "State": "IL",
   "Zip": 60610,
   "Latitude": 41.90774284494958,
   "Longitude": -87.63446079255868
 },
 {
   "License": 704,
   "DBAName": "NEW RIALTO LOUNGE",
   "Address": "8038 S ASHLAND AVE ",
   "City": "CHICAGO",
   "State": "IL",
   "Zip": 60620,
   "Latitude": 41.747366001383405,
   "Longitude": -87.6635068729952
 },
 {
   "License": 722,
   "DBAName": "MARIA AGUIRRE",
   "Address": "2857 S KEDVALE AVE ",
   "City": "CHICAGO",
   "State": "IL",
   "Zip": 60623,
   "Latitude": 41.83883416053114,
   "Longitude": -87.72790458266608
 },
 {
   "License": 724,
   "DBAName": "MR T'S",
   "Address": "3528 S INDIANA AVE ",
   "City": "CHICAGO",
   "State": "IL",
   "Zip": 60653,
   "Latitude": 41.83023256481752,
   "Longitude": -87.62189182326613
 },
 {
   "License": 732,
   "DBAName": "WOODLAWN GARDENS",
   "Address": "1200 E 93RD ST ",
   "City": "CHICAGO",
   "State": "IL",
   "Zip": 60619,
   "Latitude": 41.7259581808161,
   "Longitude": -87.59481759727105
 },
 {
   "License": 740,
   "DBAName": "CHRIS' BAR",
   "Address": "1610 W NORTH AVE ",
   "City": "CHICAGO",
   "State": "IL",
   "Zip": 60622,
   "Latitude": 41.910732841658614,
   "Longitude": -87.66817769111361
 },
 {
   "License": 747,
   "DBAName": "GUIDE'S SPORTS CLUB",
   "Address": "5544 S ARCHER AVE ",
   "City": "CHICAGO",
   "State": "IL",
   "Zip": 60638,
   "Latitude": 41.797992787088695,
   "Longitude": -87.74829736304865
 },
 {
   "License": 753,
   "DBAName": "LINCOLN RESTAURANT",
   "Address": "4008-4012 N LINCOLN AVE ",
   "City": "CHICAGO",
   "State": "IL",
   "Zip": 60618,
   "Latitude": 41.954581015413936,
   "Longitude": -87.67921526521636
 },
 {
   "License": 760,
   "DBAName": "LAS QUINCE LETRAS",
   "Address": "2880 W CERMAK RD ",
   "City": "CHICAGO",
   "State": "IL",
   "Zip": 60623,
   "Latitude": 41.851964029125455,
   "Longitude": -87.69882966389456
 },
 {
   "License": 766,
   "DBAName": "MUGS BUNNY",
   "Address": "13401 S BALTIMORE AVE ",
   "City": "CHICAGO",
   "State": "IL",
   "Zip": 60633,
   "Latitude": 41.65176176292082,
   "Longitude": -87.54701265459964
 },
 {
   "License": 774,
   "DBAName": "ASI ES COLOMBIA INC",
   "Address": "3908-3910 N LINCOLN AVE ",
   "City": "CHICAGO",
   "State": "IL",
   "Zip": 60613,
   "Latitude": 41.952554906377074,
   "Longitude": -87.67780467255146
 },
 {
   "License": 783,
   "DBAName": "PORRETTA'S RESTAURANT INC",
   "Address": "3718 N CENTRAL AVE ",
   "City": "CHICAGO",
   "State": "IL",
   "Zip": 60634,
   "Latitude": 41.9482747176331,
   "Longitude": -87.76698449802174
 },
 {
   "License": 788,
   "DBAName": "HILLTOP LIQUORS MART",
   "Address": "10259 S MICHIGAN AVE ",
   "City": "CHICAGO",
   "State": "IL",
   "Zip": 60628,
   "Latitude": 41.70724797476619,
   "Longitude": -87.62005636397815
 },
 {
   "License": 800,
   "DBAName": "RESI'S BIERSTUBE INC",
   "Address": "2034 W IRVING PARK RD ",
   "City": "CHICAGO",
   "State": "IL",
   "Zip": 60618,
   "Latitude": 41.95424367096349,
   "Longitude": -87.68030424642977
 },
 {
   "License": 804,
   "DBAName": "LLOYDS LOUNGE, INC.",
   "Address": "6046 S RACINE AVE ",
   "City": "CHICAGO",
   "State": "IL",
   "Zip": 60636,
   "Latitude": 41.78367273729985,
   "Longitude": -87.65475216429716
 },
 {
   "License": 822,
   "DBAName": "JOE'S FOOD & LIQUOR",
   "Address": "3626 W LAWRENCE AVE ",
   "City": "CHICAGO",
   "State": "IL",
   "Zip": 60625,
   "Latitude": 41.968445246044006,
   "Longitude": -87.71941657581397
 },
 {
   "License": 833,
   "DBAName": "STEVE'S LOUNGE",
   "Address": "13200 S BALTIMORE AVE ",
   "City": "CHICAGO",
   "State": "IL",
   "Zip": 60633,
   "Latitude": 41.65541665055572,
   "Longitude": -87.54729079495272
 },
 {
   "License": 842,
   "DBAName": "LASKO'S",
   "Address": "5525 N MILWAUKEE AVE ",
   "City": "CHICAGO",
   "State": "IL",
   "Zip": 60630,
   "Latitude": 41.982306615471906,
   "Longitude": -87.77362028372556
 },
 {
   "License": 845,
   "DBAName": "ANDYS 11 EAST LOUNGE",
   "Address": "11 E HUBBARD ST ",
   "City": "CHICAGO",
   "State": "IL",
   "Zip": 60611,
   "Latitude": 41.889963868268154,
   "Longitude": -87.62750692235895
 },
 {
   "License": 849,
   "DBAName": "PROHIBITION CLUB",
   "Address": "5600 N MILWAUKEE AVE ",
   "City": "CHICAGO",
   "State": "IL",
   "Zip": 60646,
   "Latitude": 41.98287042320136,
   "Longitude": -87.77448692767355
 },
 {
   "License": 851,
   "DBAName": "DELISI'S PIZZERIA",
   "Address": "5806 N WESTERN AVE ",
   "City": "CHICAGO",
   "State": "IL",
   "Zip": 60659,
   "Latitude": 41.9870694721321,
   "Longitude": -87.6897050956807
 },
 {
   "License": 853,
   "DBAName": "R J GRUNTS",
   "Address": "2054-2056 N LINCOLN PARK WEST ",
   "City": "CHICAGO",
   "State": "IL",
   "Zip": 60614,
   "Latitude": 41.92003078139471,
   "Longitude": -87.636545550607
 },
 {
   "License": 857,
   "DBAName": "TONYS PEKING GARDEN INC",
   "Address": "5819 W BELMONT AVE ",
   "City": "CHICAGO",
   "State": "IL",
   "Zip": 60634,
   "Latitude": 41.93839141038951,
   "Longitude": -87.77211894533082
 },
 {
   "License": 896,
   "DBAName": "KEN'S LOUNGE & REST",
   "Address": "10522 S WESTERN AVE ",
   "City": "CHICAGO",
   "State": "IL",
   "Zip": 60643,
   "Latitude": 41.70201547384728,
   "Longitude": -87.68162963117253
 },
 {
   "License": 901,
   "DBAName": "NORMAN'S FOOD & LIQUORS",
   "Address": "6647 S HALSTED ST ",
   "City": "CHICAGO",
   "State": "IL",
   "Zip": 60621,
   "Latitude": 41.77290240985873,
   "Longitude": -87.64446132727797
 },
 {
   "License": 928,
   "DBAName": "TEASER'S PUB",
   "Address": "7123 W HIGGINS AVE ",
   "City": "CHICAGO",
   "State": "IL",
   "Zip": 60656,
   "Latitude": 41.98072619841562,
   "Longitude": -87.80571278001223
 },
 {
   "License": 946,
   "DBAName": "J & R COCKTAIL LOUNGE",
   "Address": "612 E 79TH ST ",
   "City": "CHICAGO",
   "State": "IL",
   "Zip": 60619,
   "Latitude": 41.751319087722045,
   "Longitude": -87.60952232294443
 },
 {
   "License": 951,
   "DBAName": "MITCHELL LOUNGE",
   "Address": "2005 W 69TH ST ",
   "City": "CHICAGO",
   "State": "IL",
   "Zip": 60636,
   "Latitude": 41.76832753024063,
   "Longitude": -87.67389580865591
 },
 {
   "License": 955,
   "DBAName": "FREDY'S INN",
   "Address": "2905 N ELSTON AVE ",
   "City": "CHICAGO",
   "State": "IL",
   "Zip": 60618,
   "Latitude": 41.93416814341909,
   "Longitude": -87.69047825732142
 },
 {
   "License": 957,
   "DBAName": "BOB'S LIQUORS & GROCERIES",
   "Address": "5069 W MADISON ST ",
   "City": "CHICAGO",
   "State": "IL",
   "Zip": 60644,
   "Latitude": 41.88029608947185,
   "Longitude": -87.7524941981518
 },
 {
   "License": 968,
   "DBAName": "CHEZ MOI",
   "Address": "2100 N HALSTED ST ",
   "City": "CHICAGO",
   "State": "IL",
   "Zip": 60614,
   "Latitude": 41.92008219079211,
   "Longitude": -87.6487247147394
 },
 {
   "License": 971,
   "DBAName": "ATHENS GROCERY",
   "Address": "324 S HALSTED ST ",
   "City": "CHICAGO",
   "State": "IL",
   "Zip": 60661,
   "Latitude": 41.877162128124134,
   "Longitude": -87.64736428967983
 },
 {
   "License": 980,
   "DBAName": "7400 S HALSTED FOOD AND LIQUORS, INC.",
   "Address": "7400 S HALSTED ST ",
   "City": "CHICAGO",
   "State": "IL",
   "Zip": 60621,
   "Latitude": 41.759674581873924,
   "Longitude": -87.64442023888927
 },
 {
   "License": 990,
   "DBAName": "FALCO'S PIZZA",
   "Address": "2806 W 40TH PL ",
   "City": "CHICAGO",
   "State": "IL",
   "Zip": 60632,
   "Latitude": 41.82023097447918,
   "Longitude": -87.6948747056587
 },
 {
   "License": 994,
   "DBAName": "WILLIAMS INN",
   "Address": "5701 S ASHLAND AVE ",
   "City": "CHICAGO",
   "State": "IL",
   "Zip": 60636,
   "Latitude": 41.79029802503693,
   "Longitude": -87.66434168191911
 }
 ]